{"type": "FeatureCollection", "features": [{"type": "Feature", "properties": {"navn": "Alna stasjon", "id": "NSR:StopPlace:62308", "viktighet": 2, "avganger": 152, "operatorer": ["VYG"], "kilde": "journey-planner"}, "geometry": {"type": "Point", "coordinates": [10.83445, 59.93184]}}, {"type": "Feature", "properties": {"navn": "Alvdal stasjon", "id": "NSR:StopPlace:58804", "viktighet": 2, "avganger": 12, "operatorer": ["SJN"], "kilde": "journey-planner"}, "geometry": {"type": "Point", "coordinates": [10.6324, 62.10916]}}, {"type": "Feature", "properties": {"navn": "Arendal stasjon", "id": "NSR:StopPlace:58886", "viktighet": 2, "avganger": 8, "operatorer": ["GOA"], "kilde": "journey-planner"}, "geometry": {"type": "Point", "coordinates": [8.76986, 58.46468]}}, {"type": "Feature", "properties": {"navn": "Arna stasjon", "id": "NSR:StopPlace:398", "viktighet": 2, "avganger": 104, "operatorer": ["VYG"], "kilde": "journey-planner"}, "geometry": {"type": "Point", "coordinates": [5.46609, 60.4201]}}, {"type": "Feature", "properties": {"navn": "Asker stasjon", "id": "NSR:StopPlace:59616", "viktighet": 2, "avganger": 398, "operatorer": ["FLT", "GOA", "VYG"], "kilde": "journey-planner"}, "geometry": {"type": "Point", "coordinates": [10.43417, 59.83313]}}, {"type": "Feature", "properties": {"navn": "Askim stasjon", "id": "NSR:StopPlace:58793", "viktighet": 2, "avganger": 42, "operatorer": ["VYG"], "kilde": "journey-planner"}, "geometry": {"type": "Point", "coordinates": [11.16329, 59.58163]}}, {"type": "Feature", "properties": {"navn": "Atna stasjon", "id": "NSR:StopPlace:59659", "viktighet": 2, "avganger": 12, "operatorer": ["SJN"], "kilde": "journey-planner"}, "geometry": {"type": "Point", "coordinates": [10.83485, 61.73237]}}, {"type": "Feature", "properties": {"navn": "Audnedal stasjon", "id": "NSR:StopPlace:58892", "viktighet": 2, "avganger": 15, "operatorer": ["GOA"], "kilde": "journey-planner"}, "geometry": {"type": "Point", "coordinates": [7.36757, 58.31891]}}, {"type": "Feature", "properties": {"navn": "Auli stasjon", "id": "NSR:StopPlace:441", "viktighet": 2, "avganger": 42, "operatorer": ["VYG"], "kilde": "journey-planner"}, "geometry": {"type": "Point", "coordinates": [11.35168, 60.03901]}}, {"type": "Feature", "properties": {"navn": "Auma stasjon", "id": "NSR:StopPlace:447", "viktighet": 2, "avganger": 12, "operatorer": ["SJN"], "kilde": "journey-planner"}, "geometry": {"type": "Point", "coordinates": [10.65855, 62.2206]}}, {"type": "Feature", "properties": {"navn": "Bellingmo stasjon", "id": "NSR:StopPlace:500", "viktighet": 2, "avganger": 12, "operatorer": ["SJN"], "kilde": "journey-planner"}, "geometry": {"type": "Point", "coordinates": [10.78518, 62.0301]}}, {"type": "Feature", "properties": {"navn": "Berekvam stasjon", "id": "NSR:StopPlace:61927", "viktighet": 2, "avganger": 11, "operatorer": ["VYG"], "kilde": "journey-planner"}, "geometry": {"type": "Point", "coordinates": [7.09585, 60.78832]}}, {"type": "Feature", "properties": {"navn": "Bergen stasjon", "id": "NSR:StopPlace:59983", "viktighet": 1, "avganger": 86, "operatorer": ["VYG"], "kilde": "journey-planner"}, "geometry": {"type": "Point", "coordinates": [5.33351, 60.39043]}}, {"type": "Feature", "properties": {"navn": "Bergsgrav stasjon", "id": "NSR:StopPlace:62379", "viktighet": 2, "avganger": 37, "operatorer": ["SJN"], "kilde": "journey-planner"}, "geometry": {"type": "Point", "coordinates": [11.47175, 63.77134]}}, {"type": "Feature", "properties": {"navn": "Berkåk stasjon", "id": "NSR:StopPlace:62373", "viktighet": 2, "avganger": 13, "operatorer": ["SJN"], "kilde": "journey-planner"}, "geometry": {"type": "Point", "coordinates": [10.01413, 62.82306]}}, {"type": "Feature", "properties": {"navn": "Billingstad stasjon", "id": "NSR:StopPlace:62393", "viktighet": 2, "avganger": 152, "operatorer": ["VYG"], "kilde": "journey-planner"}, "geometry": {"type": "Point", "coordinates": [10.48314, 59.87507]}}, {"type": "Feature", "properties": {"navn": "Bjerka stasjon", "id": "NSR:StopPlace:58951", "viktighet": 2, "avganger": 8, "operatorer": ["SJN"], "kilde": "journey-planner"}, "geometry": {"type": "Point", "coordinates": [13.83124, 66.14971]}}, {"type": "Feature", "properties": {"navn": "Bjorli stasjon", "id": "NSR:StopPlace:62346", "viktighet": 2, "avganger": 8, "operatorer": ["SJN"], "kilde": "journey-planner"}, "geometry": {"type": "Point", "coordinates": [8.20162, 62.25851]}}, {"type": "Feature", "properties": {"navn": "Blaker stasjon", "id": "NSR:StopPlace:58842", "viktighet": 2, "avganger": 42, "operatorer": ["VYG"], "kilde": "journey-planner"}, "geometry": {"type": "Point", "coordinates": [11.30201, 60.00512]}}, {"type": "Feature", "properties": {"navn": "Blakstad stasjon", "id": "NSR:StopPlace:58888", "viktighet": 2, "avganger": 16, "operatorer": ["GOA"], "kilde": "journey-planner"}, "geometry": {"type": "Point", "coordinates": [8.64878, 58.50744]}}, {"type": "Feature", "properties": {"navn": "Bleiken stasjon", "id": "NSR:StopPlace:58815", "viktighet": 2, "avganger": 35, "operatorer": ["VYG"], "kilde": "journey-planner"}, "geometry": {"type": "Point", "coordinates": [10.50055, 60.46834]}}, {"type": "Feature", "properties": {"navn": "Blomheller stasjon", "id": "NSR:StopPlace:61928", "viktighet": 2, "avganger": 18, "operatorer": ["VYG"], "kilde": "journey-planner"}, "geometry": {"type": "Point", "coordinates": [7.10183, 60.77166]}}, {"type": "Feature", "properties": {"navn": "Blommenholm stasjon", "id": "NSR:StopPlace:58843", "viktighet": 2, "avganger": 152, "operatorer": ["VYG"], "kilde": "journey-planner"}, "geometry": {"type": "Point", "coordinates": [10.5549, 59.89703]}}, {"type": "Feature", "properties": {"navn": "Bodung stasjon", "id": "NSR:StopPlace:59640", "viktighet": 2, "avganger": 4, "operatorer": ["VYG"], "kilde": "journey-planner"}, "geometry": {"type": "Point", "coordinates": [11.42028, 60.08525]}}, {"type": "Feature", "properties": {"navn": "Bodø stasjon", "id": "NSR:StopPlace:58952", "viktighet": 1, "avganger": 9, "operatorer": ["SJN"], "kilde": "journey-planner"}, "geometry": {"type": "Point", "coordinates": [14.39052, 67.28662]}}, {"type": "Feature", "properties": {"navn": "Bolstadøyri stasjon", "id": "NSR:StopPlace:518", "viktighet": 2, "avganger": 34, "operatorer": ["VYG"], "kilde": "journey-planner"}, "geometry": {"type": "Point", "coordinates": [5.95766, 60.63794]}}, {"type": "Feature", "properties": {"navn": "Bondivann stasjon", "id": "NSR:StopPlace:60737", "viktighet": 2, "avganger": 78, "operatorer": ["VYG"], "kilde": "journey-planner"}, "geometry": {"type": "Point", "coordinates": [10.43265, 59.82042]}}, {"type": "Feature", "properties": {"navn": "Brakerøya stasjon", "id": "NSR:StopPlace:58830", "viktighet": 2, "avganger": 77, "operatorer": ["VYG"], "kilde": "journey-planner"}, "geometry": {"type": "Point", "coordinates": [10.23235, 59.74375]}}, {"type": "Feature", "properties": {"navn": "Breland stasjon", "id": "NSR:StopPlace:62353", "viktighet": 2, "avganger": 2, "operatorer": ["GOA"], "kilde": "journey-planner"}, "geometry": {"type": "Point", "coordinates": [7.72056, 58.19946]}}, {"type": "Feature", "properties": {"navn": "Brumunddal stasjon", "id": "NSR:StopPlace:58805", "viktighet": 2, "avganger": 42, "operatorer": ["SJN", "VYG"], "kilde": "journey-planner"}, "geometry": {"type": "Point", "coordinates": [10.93818, 60.88065]}}, {"type": "Feature", "properties": {"navn": "Brusand stasjon", "id": "NSR:StopPlace:62310", "viktighet": 2, "avganger": 50, "operatorer": ["GOA"], "kilde": "journey-planner"}, "geometry": {"type": "Point", "coordinates": [5.74875, 58.54022]}}, {"type": "Feature", "properties": {"navn": "Bryn stasjon", "id": "NSR:StopPlace:61897", "viktighet": 2, "avganger": 152, "operatorer": ["VYG"], "kilde": "journey-planner"}, "geometry": {"type": "Point", "coordinates": [10.81831, 59.90857]}}, {"type": "Feature", "properties": {"navn": "Bryne stasjon", "id": "NSR:StopPlace:58924", "viktighet": 2, "avganger": 84, "operatorer": ["GOA"], "kilde": "journey-planner"}, "geometry": {"type": "Point", "coordinates": [5.64921, 58.73479]}}, {"type": "Feature", "properties": {"navn": "Bråstad stasjon", "id": "NSR:StopPlace:62351", "viktighet": 2, "avganger": 16, "operatorer": ["GOA"], "kilde": "journey-planner"}, "geometry": {"type": "Point", "coordinates": [8.6895, 58.46279]}}, {"type": "Feature", "properties": {"navn": "Bulken stasjon", "id": "NSR:StopPlace:584", "viktighet": 2, "avganger": 33, "operatorer": ["VYG"], "kilde": "journey-planner"}, "geometry": {"type": "Point", "coordinates": [6.28493, 60.63058]}}, {"type": "Feature", "properties": {"navn": "Bø stasjon", "id": "NSR:StopPlace:58877", "viktighet": 2, "avganger": 14, "operatorer": ["GOA"], "kilde": "journey-planner"}, "geometry": {"type": "Point", "coordinates": [9.06922, 59.4094]}}, {"type": "Feature", "properties": {"navn": "Bøylestad stasjon", "id": "NSR:StopPlace:62354", "viktighet": 2, "avganger": 16, "operatorer": ["GOA"], "kilde": "journey-planner"}, "geometry": {"type": "Point", "coordinates": [8.70556, 58.57661]}}, {"type": "Feature", "properties": {"navn": "Dal stasjon", "id": "NSR:StopPlace:59647", "viktighet": 2, "avganger": 39, "operatorer": ["VYG"], "kilde": "journey-planner"}, "geometry": {"type": "Point", "coordinates": [11.20244, 60.24873]}}, {"type": "Feature", "properties": {"navn": "Dale stasjon", "id": "NSR:StopPlace:58926", "viktighet": 2, "avganger": 40, "operatorer": ["VYG"], "kilde": "journey-planner"}, "geometry": {"type": "Point", "coordinates": [5.81565, 60.58637]}}, {"type": "Feature", "properties": {"navn": "Darbu stasjon", "id": "NSR:StopPlace:628", "viktighet": 2, "avganger": 43, "operatorer": ["VYG"], "kilde": "journey-planner"}, "geometry": {"type": "Point", "coordinates": [9.80016, 59.70159]}}, {"type": "Feature", "properties": {"navn": "Dombås stasjon", "id": "NSR:StopPlace:58816", "viktighet": 2, "avganger": 17, "operatorer": ["SJN", "VYG"], "kilde": "journey-planner"}, "geometry": {"type": "Point", "coordinates": [9.12565, 62.06906]}}, {"type": "Feature", "properties": {"navn": "Dovre stasjon", "id": "NSR:StopPlace:59690", "viktighet": 2, "avganger": 4, "operatorer": ["SJN", "VYG"], "kilde": "journey-planner"}, "geometry": {"type": "Point", "coordinates": [9.25685, 61.98439]}}, {"type": "Feature", "properties": {"navn": "Drammen stasjon", "id": "NSR:StopPlace:59952", "viktighet": 2, "avganger": 215, "operatorer": ["FLT", "GOA", "VYG"], "kilde": "journey-planner"}, "geometry": {"type": "Point", "coordinates": [10.20495, 59.73994]}}, {"type": "Feature", "properties": {"navn": "Drangedal stasjon", "id": "NSR:StopPlace:58878", "viktighet": 2, "avganger": 14, "operatorer": ["GOA"], "kilde": "journey-planner"}, "geometry": {"type": "Point", "coordinates": [9.06418, 59.09634]}}, {"type": "Feature", "properties": {"navn": "Drevvatn stasjon", "id": "NSR:StopPlace:61341", "viktighet": 2, "avganger": 8, "operatorer": ["SJN"], "kilde": "journey-planner"}, "geometry": {"type": "Point", "coordinates": [13.45503, 66.07133]}}, {"type": "Feature", "properties": {"navn": "Dunderland stasjon", "id": "NSR:StopPlace:58953", "viktighet": 2, "avganger": 5, "operatorer": ["SJN"], "kilde": "journey-planner"}, "geometry": {"type": "Point", "coordinates": [14.83769, 66.44611]}}, {"type": "Feature", "properties": {"navn": "Ed station", "id": "NSR:StopPlace:60131", "viktighet": 2, "avganger": 15, "operatorer": ["VYG"], "kilde": "journey-planner"}, "geometry": {"type": "Point", "coordinates": [11.93311, 58.91379]}}, {"type": "Feature", "properties": {"navn": "Egersund stasjon", "id": "NSR:StopPlace:59244", "viktighet": 2, "avganger": 39, "operatorer": ["GOA"], "kilde": "journey-planner"}, "geometry": {"type": "Point", "coordinates": [6.00268, 58.46113]}}, {"type": "Feature", "properties": {"navn": "Eidsberg stasjon", "id": "NSR:StopPlace:62335", "viktighet": 2, "avganger": 37, "operatorer": ["VYG"], "kilde": "journey-planner"}, "geometry": {"type": "Point", "coordinates": [11.3038, 59.5135]}}, {"type": "Feature", "properties": {"navn": "Eidsvoll stasjon", "id": "NSR:StopPlace:58844", "viktighet": 2, "avganger": 79, "operatorer": ["VYG"], "kilde": "journey-planner"}, "geometry": {"type": "Point", "coordinates": [11.24746, 60.32993]}}, {"type": "Feature", "properties": {"navn": "Eidsvoll verk stasjon", "id": "NSR:StopPlace:58845", "viktighet": 2, "avganger": 78, "operatorer": ["VYG"], "kilde": "journey-planner"}, "geometry": {"type": "Point", "coordinates": [11.16952, 60.28756]}}, {"type": "Feature", "properties": {"navn": "Eina stasjon", "id": "NSR:StopPlace:58817", "viktighet": 2, "avganger": 35, "operatorer": ["VYG"], "kilde": "journey-planner"}, "geometry": {"type": "Point", "coordinates": [10.5977, 60.63064]}}, {"type": "Feature", "properties": {"navn": "Elverum stasjon", "id": "NSR:StopPlace:117", "viktighet": 2, "avganger": 12, "operatorer": ["SJN"], "kilde": "journey-planner"}, "geometry": {"type": "Point", "coordinates": [11.54623, 60.88286]}}, {"type": "Feature", "properties": {"navn": "Evanger stasjon", "id": "NSR:StopPlace:151", "viktighet": 2, "avganger": 34, "operatorer": ["VYG"], "kilde": "journey-planner"}, "geometry": {"type": "Point", "coordinates": [6.10952, 60.6471]}}, {"type": "Feature", "properties": {"navn": "Evenstad stasjon", "id": "NSR:StopPlace:58806", "viktighet": 2, "avganger": 12, "operatorer": ["SJN"], "kilde": "journey-planner"}, "geometry": {"type": "Point", "coordinates": [11.09897, 61.42331]}}, {"type": "Feature", "properties": {"navn": "Fauske stasjon", "id": "NSR:StopPlace:58954", "viktighet": 2, "avganger": 17, "operatorer": ["SJN"], "kilde": "journey-planner"}, "geometry": {"type": "Point", "coordinates": [15.39865, 67.26417]}}, {"type": "Feature", "properties": {"navn": "Fetsund stasjon", "id": "NSR:StopPlace:58846", "viktighet": 2, "avganger": 42, "operatorer": ["VYG"], "kilde": "journey-planner"}, "geometry": {"type": "Point", "coordinates": [11.1626, 59.92722]}}, {"type": "Feature", "properties": {"navn": "Finse stasjon", "id": "NSR:StopPlace:200", "viktighet": 2, "avganger": 17, "operatorer": ["VYG"], "kilde": "journey-planner"}, "geometry": {"type": "Point", "coordinates": [7.50382, 60.60177]}}, {"type": "Feature", "properties": {"navn": "Fjellhamar stasjon", "id": "NSR:StopPlace:59641", "viktighet": 2, "avganger": 152, "operatorer": ["VYG"], "kilde": "journey-planner"}, "geometry": {"type": "Point", "coordinates": [10.98193, 59.94074]}}, {"type": "Feature", "properties": {"navn": "Flaten stasjon", "id": "NSR:StopPlace:61460", "viktighet": 2, "avganger": 16, "operatorer": ["GOA"], "kilde": "journey-planner"}, "geometry": {"type": "Point", "coordinates": [8.68067, 58.63622]}}, {"type": "Feature", "properties": {"navn": "Flå stasjon", "id": "NSR:StopPlace:58831", "viktighet": 2, "avganger": 6, "operatorer": ["VYG"], "kilde": "journey-planner"}, "geometry": {"type": "Point", "coordinates": [9.47293, 60.43205]}}, {"type": "Feature", "properties": {"navn": "Flåm stasjon", "id": "NSR:StopPlace:58927", "viktighet": 2, "avganger": 10, "operatorer": ["VYG"], "kilde": "journey-planner"}, "geometry": {"type": "Point", "coordinates": [7.11441, 60.86318]}}, {"type": "Feature", "properties": {"navn": "Fredrikstad stasjon", "id": "NSR:StopPlace:58794", "viktighet": 2, "avganger": 46, "operatorer": ["VYG"], "kilde": "journey-planner"}, "geometry": {"type": "Point", "coordinates": [10.95028, 59.2088]}}, {"type": "Feature", "properties": {"navn": "Frogner stasjon", "id": "NSR:StopPlace:58847", "viktighet": 2, "avganger": 76, "operatorer": ["VYG"], "kilde": "journey-planner"}, "geometry": {"type": "Point", "coordinates": [11.1034, 60.02282]}}, {"type": "Feature", "properties": {"navn": "Froland stasjon", "id": "NSR:StopPlace:62355", "viktighet": 2, "avganger": 16, "operatorer": ["GOA"], "kilde": "journey-planner"}, "geometry": {"type": "Point", "coordinates": [8.65413, 58.5291]}}, {"type": "Feature", "properties": {"navn": "Ganddal stasjon", "id": "NSR:StopPlace:261", "viktighet": 2, "avganger": 77, "operatorer": ["GOA"], "kilde": "journey-planner"}, "geometry": {"type": "Point", "coordinates": [5.71717, 58.82328]}}, {"type": "Feature", "properties": {"navn": "Gausel stasjon", "id": "NSR:StopPlace:58925", "viktighet": 2, "avganger": 139, "operatorer": ["GOA"], "kilde": "journey-planner"}, "geometry": {"type": "Point", "coordinates": [5.73996, 58.89942]}}, {"type": "Feature", "properties": {"navn": "Geilo stasjon", "id": "NSR:StopPlace:58832", "viktighet": 2, "avganger": 15, "operatorer": ["VYG"], "kilde": "journey-planner"}, "geometry": {"type": "Point", "coordinates": [8.20675, 60.5345]}}, {"type": "Feature", "properties": {"navn": "Gjerdåker stasjon", "id": "NSR:StopPlace:311", "viktighet": 2, "avganger": 9, "operatorer": ["VYG"], "kilde": "journey-planner"}, "geometry": {"type": "Point", "coordinates": [6.46363, 60.63941]}}, {"type": "Feature", "properties": {"navn": "Gjerstad stasjon", "id": "NSR:StopPlace:58889", "viktighet": 2, "avganger": 12, "operatorer": ["GOA"], "kilde": "journey-planner"}, "geometry": {"type": "Point", "coordinates": [9.0235, 58.86987]}}, {"type": "Feature", "properties": {"navn": "Gjøvik stasjon", "id": "NSR:StopPlace:302", "viktighet": 2, "avganger": 18, "operatorer": ["VYG"], "kilde": "journey-planner"}, "geometry": {"type": "Point", "coordinates": [10.69432, 60.79718]}}, {"type": "Feature", "properties": {"navn": "Glåmos stasjon", "id": "NSR:StopPlace:331", "viktighet": 2, "avganger": 6, "operatorer": ["SJN"], "kilde": "journey-planner"}, "geometry": {"type": "Point", "coordinates": [11.41654, 62.67453]}}, {"type": "Feature", "properties": {"navn": "Gol stasjon", "id": "NSR:StopPlace:58833", "viktighet": 2, "avganger": 14, "operatorer": ["VYG"], "kilde": "journey-planner"}, "geometry": {"type": "Point", "coordinates": [8.97076, 60.69915]}}, {"type": "Feature", "properties": {"navn": "Gran stasjon", "id": "NSR:StopPlace:58818", "viktighet": 2, "avganger": 45, "operatorer": ["VYG"], "kilde": "journey-planner"}, "geometry": {"type": "Point", "coordinates": [10.56989, 60.35882]}}, {"type": "Feature", "properties": {"navn": "Grefsen stasjon", "id": "NSR:StopPlace:59643", "viktighet": 2, "avganger": 66, "operatorer": ["VYG"], "kilde": "journey-planner"}, "geometry": {"type": "Point", "coordinates": [10.78079, 59.94168]}}, {"type": "Feature", "properties": {"navn": "Greverud stasjon", "id": "NSR:StopPlace:6", "viktighet": 2, "avganger": 153, "operatorer": ["VYG"], "kilde": "journey-planner"}, "geometry": {"type": "Point", "coordinates": [10.80607, 59.77329]}}, {"type": "Feature", "properties": {"navn": "Grong stasjon", "id": "NSR:StopPlace:59687", "viktighet": 2, "avganger": 4, "operatorer": ["SJN"], "kilde": "journey-planner"}, "geometry": {"type": "Point", "coordinates": [12.33717, 64.45808]}}, {"type": "Feature", "properties": {"navn": "Grorud stasjon", "id": "NSR:StopPlace:59620", "viktighet": 2, "avganger": 152, "operatorer": ["VYG"], "kilde": "journey-planner"}, "geometry": {"type": "Point", "coordinates": [10.88783, 59.95011]}}, {"type": "Feature", "properties": {"navn": "Grua stasjon", "id": "NSR:StopPlace:58819", "viktighet": 2, "avganger": 46, "operatorer": ["VYG"], "kilde": "journey-planner"}, "geometry": {"type": "Point", "coordinates": [10.66473, 60.25877]}}, {"type": "Feature", "properties": {"navn": "Gudå stasjon", "id": "NSR:StopPlace:61787", "viktighet": 2, "avganger": 4, "operatorer": ["SJN"], "kilde": "journey-planner"}, "geometry": {"type": "Point", "coordinates": [11.61814, 63.44386]}}, {"type": "Feature", "properties": {"navn": "Gullhella stasjon", "id": "NSR:StopPlace:60735", "viktighet": 2, "avganger": 78, "operatorer": ["VYG"], "kilde": "journey-planner"}, "geometry": {"type": "Point", "coordinates": [10.4366, 59.80731]}}, {"type": "Feature", "properties": {"navn": "Gulskogen stasjon", "id": "NSR:StopPlace:61326", "viktighet": 2, "avganger": 43, "operatorer": ["VYG"], "kilde": "journey-planner"}, "geometry": {"type": "Point", "coordinates": [10.16109, 59.74401]}}, {"type": "Feature", "properties": {"navn": "Gyland stasjon", "id": "NSR:StopPlace:59092", "viktighet": 2, "avganger": 14, "operatorer": ["GOA"], "kilde": "journey-planner"}, "geometry": {"type": "Point", "coordinates": [6.8372, 58.38434]}}, {"type": "Feature", "properties": {"navn": "Göteborg Centralstation", "id": "NSR:StopPlace:374", "viktighet": 2, "avganger": 38, "operatorer": ["VYG"], "kilde": "journey-planner"}, "geometry": {"type": "Point", "coordinates": [11.9729, 57.70916]}}, {"type": "Feature", "properties": {"navn": "Haga stasjon", "id": "NSR:StopPlace:58848", "viktighet": 2, "avganger": 38, "operatorer": ["VYG"], "kilde": "journey-planner"}, "geometry": {"type": "Point", "coordinates": [11.37412, 60.0541]}}, {"type": "Feature", "properties": {"navn": "Hakadal stasjon", "id": "NSR:StopPlace:58849", "viktighet": 2, "avganger": 33, "operatorer": ["VYG"], "kilde": "journey-planner"}, "geometry": {"type": "Point", "coordinates": [10.82923, 60.11757]}}, {"type": "Feature", "properties": {"navn": "Halden stasjon", "id": "NSR:StopPlace:60053", "viktighet": 2, "avganger": 29, "operatorer": ["VYG"], "kilde": "journey-planner"}, "geometry": {"type": "Point", "coordinates": [11.38436, 59.12025]}}, {"type": "Feature", "properties": {"navn": "Hallingskeid stasjon", "id": "NSR:StopPlace:71", "viktighet": 2, "avganger": 12, "operatorer": ["VYG"], "kilde": "journey-planner"}, "geometry": {"type": "Point", "coordinates": [7.25225, 60.66792]}}, {"type": "Feature", "properties": {"navn": "Haltdalen stasjon", "id": "NSR:StopPlace:61388", "viktighet": 2, "avganger": 6, "operatorer": ["SJN"], "kilde": "journey-planner"}, "geometry": {"type": "Point", "coordinates": [11.14431, 62.92831]}}, {"type": "Feature", "properties": {"navn": "Hamar stasjon", "id": "NSR:StopPlace:60045", "viktighet": 2, "avganger": 59, "operatorer": ["SJN", "VYG"], "kilde": "journey-planner"}, "geometry": {"type": "Point", "coordinates": [11.0771, 60.79153]}}, {"type": "Feature", "properties": {"navn": "Hanaborg stasjon", "id": "NSR:StopPlace:41", "viktighet": 2, "avganger": 152, "operatorer": ["VYG"], "kilde": "journey-planner"}, "geometry": {"type": "Point", "coordinates": [10.96548, 59.93899]}}, {"type": "Feature", "properties": {"navn": "Hanestad stasjon", "id": "NSR:StopPlace:58807", "viktighet": 2, "avganger": 12, "operatorer": ["SJN"], "kilde": "journey-planner"}, "geometry": {"type": "Point", "coordinates": [10.87961, 61.83809]}}, {"type": "Feature", "properties": {"navn": "Harestua stasjon", "id": "NSR:StopPlace:58820", "viktighet": 2, "avganger": 47, "operatorer": ["VYG"], "kilde": "journey-planner"}, "geometry": {"type": "Point", "coordinates": [10.72282, 60.20589]}}, {"type": "Feature", "properties": {"navn": "Harran stasjon", "id": "NSR:StopPlace:60900", "viktighet": 2, "avganger": 4, "operatorer": ["SJN"], "kilde": "journey-planner"}, "geometry": {"type": "Point", "coordinates": [12.49392, 64.56863]}}, {"type": "Feature", "properties": {"navn": "Hauerseter stasjon", "id": "NSR:StopPlace:58850", "viktighet": 2, "avganger": 76, "operatorer": ["VYG"], "kilde": "journey-planner"}, "geometry": {"type": "Point", "coordinates": [11.19565, 60.18529]}}, {"type": "Feature", "properties": {"navn": "Haugastøl stasjon", "id": "NSR:StopPlace:61295", "viktighet": 2, "avganger": 9, "operatorer": ["VYG"], "kilde": "journey-planner"}, "geometry": {"type": "Point", "coordinates": [7.86783, 60.51147]}}, {"type": "Feature", "properties": {"navn": "Haugenstua stasjon", "id": "NSR:StopPlace:59653", "viktighet": 2, "avganger": 154, "operatorer": ["VYG"], "kilde": "journey-planner"}, "geometry": {"type": "Point", "coordinates": [10.90973, 59.95122]}}, {"type": "Feature", "properties": {"navn": "Hauketo stasjon", "id": "NSR:StopPlace:59635", "viktighet": 2, "avganger": 153, "operatorer": ["VYG"], "kilde": "journey-planner"}, "geometry": {"type": "Point", "coordinates": [10.80312, 59.846]}}, {"type": "Feature", "properties": {"navn": "Heggedal stasjon", "id": "NSR:StopPlace:58851", "viktighet": 2, "avganger": 78, "operatorer": ["VYG"], "kilde": "journey-planner"}, "geometry": {"type": "Point", "coordinates": [10.43103, 59.78704]}}, {"type": "Feature", "properties": {"navn": "Hegra stasjon", "id": "NSR:StopPlace:58933", "viktighet": 2, "avganger": 4, "operatorer": ["SJN"], "kilde": "journey-planner"}, "geometry": {"type": "Point", "coordinates": [11.10351, 63.46092]}}, {"type": "Feature", "properties": {"navn": "Heia stasjon", "id": "NSR:StopPlace:61413", "viktighet": 2, "avganger": 37, "operatorer": ["VYG"], "kilde": "journey-planner"}, "geometry": {"type": "Point", "coordinates": [11.32968, 59.47309]}}, {"type": "Feature", "properties": {"navn": "Heimdal stasjon", "id": "NSR:StopPlace:60640", "viktighet": 2, "avganger": 51, "operatorer": ["SJN"], "kilde": "journey-planner"}, "geometry": {"type": "Point", "coordinates": [10.35724, 63.35122]}}, {"type": "Feature", "properties": {"navn": "Hell stasjon", "id": "NSR:StopPlace:61735", "viktighet": 2, "avganger": 45, "operatorer": ["SJN"], "kilde": "journey-planner"}, "geometry": {"type": "Point", "coordinates": [10.89627, 63.44591]}}, {"type": "Feature", "properties": {"navn": "Hellvik stasjon", "id": "NSR:StopPlace:61979", "viktighet": 2, "avganger": 50, "operatorer": ["GOA"], "kilde": "journey-planner"}, "geometry": {"type": "Point", "coordinates": [5.89707, 58.48576]}}, {"type": "Feature", "properties": {"navn": "Hjerkinn stasjon", "id": "NSR:StopPlace:58821", "viktighet": 2, "avganger": 12, "operatorer": ["SJN"], "kilde": "journey-planner"}, "geometry": {"type": "Point", "coordinates": [9.54125, 62.22022]}}, {"type": "Feature", "properties": {"navn": "Hokksund stasjon", "id": "NSR:StopPlace:58834", "viktighet": 2, "avganger": 48, "operatorer": ["GOA", "VYG"], "kilde": "journey-planner"}, "geometry": {"type": "Point", "coordinates": [9.91113, 59.76718]}}, {"type": "Feature", "properties": {"navn": "Holmestrand stasjon", "id": "NSR:StopPlace:58870", "viktighet": 2, "avganger": 46, "operatorer": ["VYG"], "kilde": "journey-planner"}, "geometry": {"type": "Point", "coordinates": [10.31161, 59.49214]}}, {"type": "Feature", "properties": {"navn": "Holmlia stasjon", "id": "NSR:StopPlace:59636", "viktighet": 2, "avganger": 153, "operatorer": ["VYG"], "kilde": "journey-planner"}, "geometry": {"type": "Point", "coordinates": [10.79714, 59.83505]}}, {"type": "Feature", "properties": {"navn": "Hommelvik stasjon", "id": "NSR:StopPlace:58932", "viktighet": 2, "avganger": 45, "operatorer": ["SJN"], "kilde": "journey-planner"}, "geometry": {"type": "Point", "coordinates": [10.79427, 63.41154]}}, {"type": "Feature", "properties": {"navn": "Hovin stasjon", "id": "NSR:StopPlace:61314", "viktighet": 2, "avganger": 13, "operatorer": ["SJN"], "kilde": "journey-planner"}, "geometry": {"type": "Point", "coordinates": [10.2301, 63.09877]}}, {"type": "Feature", "properties": {"navn": "Hunderfossen stasjon", "id": "NSR:StopPlace:64518", "viktighet": 2, "avganger": 14, "operatorer": ["SJN", "VYG"], "kilde": "journey-planner"}, "geometry": {"type": "Point", "coordinates": [10.4381, 61.22349]}}, {"type": "Feature", "properties": {"navn": "Hvalstad stasjon", "id": "NSR:StopPlace:61464", "viktighet": 2, "avganger": 152, "operatorer": ["VYG"], "kilde": "journey-planner"}, "geometry": {"type": "Point", "coordinates": [10.46225, 59.85895]}}, {"type": "Feature", "properties": {"navn": "Håreina stasjon", "id": "NSR:StopPlace:61926", "viktighet": 2, "avganger": 18, "operatorer": ["VYG"], "kilde": "journey-planner"}, "geometry": {"type": "Point", "coordinates": [7.12277, 60.83963]}}, {"type": "Feature", "properties": {"navn": "Høn stasjon", "id": "NSR:StopPlace:58852", "viktighet": 2, "avganger": 152, "operatorer": ["VYG"], "kilde": "journey-planner"}, "geometry": {"type": "Point", "coordinates": [10.45619, 59.84375]}}, {"type": "Feature", "properties": {"navn": "Hønefoss stasjon", "id": "NSR:StopPlace:60049", "viktighet": 2, "avganger": 14, "operatorer": ["VYG"], "kilde": "journey-planner"}, "geometry": {"type": "Point", "coordinates": [10.24967, 60.16924]}}, {"type": "Feature", "properties": {"navn": "Høvik stasjon", "id": "NSR:StopPlace:59646", "viktighet": 2, "avganger": 152, "operatorer": ["VYG"], "kilde": "journey-planner"}, "geometry": {"type": "Point", "coordinates": [10.58171, 59.90061]}}, {"type": "Feature", "properties": {"navn": "Høybråten stasjon", "id": "NSR:StopPlace:313", "viktighet": 2, "avganger": 152, "operatorer": ["VYG"], "kilde": "journey-planner"}, "geometry": {"type": "Point", "coordinates": [10.92765, 59.94809]}}, {"type": "Feature", "properties": {"navn": "Ilseng stasjon", "id": "NSR:StopPlace:62340", "viktighet": 2, "avganger": 12, "operatorer": ["SJN"], "kilde": "journey-planner"}, "geometry": {"type": "Point", "coordinates": [11.22263, 60.77694]}}, {"type": "Feature", "properties": {"navn": "Jaren stasjon", "id": "NSR:StopPlace:58823", "viktighet": 2, "avganger": 40, "operatorer": ["VYG"], "kilde": "journey-planner"}, "geometry": {"type": "Point", "coordinates": [10.55641, 60.39266]}}, {"type": "Feature", "properties": {"navn": "Jessheim stasjon", "id": "NSR:StopPlace:58963", "viktighet": 2, "avganger": 77, "operatorer": ["VYG"], "kilde": "journey-planner"}, "geometry": {"type": "Point", "coordinates": [11.17663, 60.14203]}}, {"type": "Feature", "properties": {"navn": "Jåttåvågen stasjon", "id": "NSR:StopPlace:362", "viktighet": 2, "avganger": 146, "operatorer": ["GOA"], "kilde": "journey-planner"}, "geometry": {"type": "Point", "coordinates": [5.72913, 58.91387]}}, {"type": "Feature", "properties": {"navn": "Jørstad stasjon", "id": "NSR:StopPlace:61385", "viktighet": 2, "avganger": 4, "operatorer": ["SJN"], "kilde": "journey-planner"}, "geometry": {"type": "Point", "coordinates": [12.2423, 64.2066]}}, {"type": "Feature", "properties": {"navn": "Kambo stasjon", "id": "NSR:StopPlace:58795", "viktighet": 2, "avganger": 77, "operatorer": ["VYG"], "kilde": "journey-planner"}, "geometry": {"type": "Point", "coordinates": [10.69285, 59.4777]}}, {"type": "Feature", "properties": {"navn": "Kjelsås stasjon", "id": "NSR:StopPlace:59648", "viktighet": 2, "avganger": 66, "operatorer": ["VYG"], "kilde": "journey-planner"}, "geometry": {"type": "Point", "coordinates": [10.78292, 59.96597]}}, {"type": "Feature", "properties": {"navn": "Kjosfossen stasjon", "id": "NSR:StopPlace:535", "viktighet": 2, "avganger": 20, "operatorer": ["VYG"], "kilde": "journey-planner"}, "geometry": {"type": "Point", "coordinates": [7.13565, 60.74695]}}, {"type": "Feature", "properties": {"navn": "Klepp stasjon", "id": "NSR:StopPlace:59957", "viktighet": 2, "avganger": 77, "operatorer": ["GOA"], "kilde": "journey-planner"}, "geometry": {"type": "Point", "coordinates": [5.67789, 58.77194]}}, {"type": "Feature", "properties": {"navn": "Kløfta stasjon", "id": "NSR:StopPlace:58964", "viktighet": 2, "avganger": 77, "operatorer": ["VYG"], "kilde": "journey-planner"}, "geometry": {"type": "Point", "coordinates": [11.13911, 60.07495]}}, {"type": "Feature", "properties": {"navn": "Kløve stasjon", "id": "NSR:StopPlace:62360", "viktighet": 2, "avganger": 9, "operatorer": ["VYG"], "kilde": "journey-planner"}, "geometry": {"type": "Point", "coordinates": [6.53474, 60.66289]}}, {"type": "Feature", "properties": {"navn": "Knapstad stasjon", "id": "NSR:StopPlace:62336", "viktighet": 2, "avganger": 42, "operatorer": ["VYG"], "kilde": "journey-planner"}, "geometry": {"type": "Point", "coordinates": [11.03231, 59.62579]}}, {"type": "Feature", "properties": {"navn": "Kolbotn stasjon", "id": "NSR:StopPlace:58853", "viktighet": 2, "avganger": 153, "operatorer": ["VYG"], "kilde": "journey-planner"}, "geometry": {"type": "Point", "coordinates": [10.80118, 59.81094]}}, {"type": "Feature", "properties": {"navn": "Kongsberg stasjon", "id": "NSR:StopPlace:60603", "viktighet": 2, "avganger": 37, "operatorer": ["GOA", "VYG"], "kilde": "journey-planner"}, "geometry": {"type": "Point", "coordinates": [9.65119, 59.67227]}}, {"type": "Feature", "properties": {"navn": "Kongsvinger stasjon", "id": "NSR:StopPlace:58808", "viktighet": 2, "avganger": 31, "operatorer": ["VYG"], "kilde": "journey-planner"}, "geometry": {"type": "Point", "coordinates": [12.00406, 60.1875]}}, {"type": "Feature", "properties": {"navn": "Kongsvoll stasjon", "id": "NSR:StopPlace:60078", "viktighet": 2, "avganger": 12, "operatorer": ["SJN"], "kilde": "journey-planner"}, "geometry": {"type": "Point", "coordinates": [9.60626, 62.30706]}}, {"type": "Feature", "properties": {"navn": "Koppang stasjon", "id": "NSR:StopPlace:58809", "viktighet": 2, "avganger": 12, "operatorer": ["SJN"], "kilde": "journey-planner"}, "geometry": {"type": "Point", "coordinates": [11.04459, 61.57292]}}, {"type": "Feature", "properties": {"navn": "Kopperå stasjon", "id": "NSR:StopPlace:62376", "viktighet": 2, "avganger": 4, "operatorer": ["SJN"], "kilde": "journey-planner"}, "geometry": {"type": "Point", "coordinates": [11.84777, 63.392]}}, {"type": "Feature", "properties": {"navn": "Kotsøy stasjon", "id": "NSR:StopPlace:62375", "viktighet": 2, "avganger": 6, "operatorer": ["SJN"], "kilde": "journey-planner"}, "geometry": {"type": "Point", "coordinates": [10.56135, 62.97642]}}, {"type": "Feature", "properties": {"navn": "Kristiansand stasjon", "id": "NSR:StopPlace:61608", "viktighet": 2, "avganger": 12, "operatorer": ["GOA"], "kilde": "journey-planner"}, "geometry": {"type": "Point", "coordinates": [7.98807, 58.14559]}}, {"type": "Feature", "properties": {"navn": "Kråkstad stasjon", "id": "NSR:StopPlace:60016", "viktighet": 2, "avganger": 42, "operatorer": ["VYG"], "kilde": "journey-planner"}, "geometry": {"type": "Point", "coordinates": [10.89078, 59.68336]}}, {"type": "Feature", "properties": {"navn": "Kvam stasjon", "id": "NSR:StopPlace:62349", "viktighet": 2, "avganger": 4, "operatorer": ["SJN", "VYG"], "kilde": "journey-planner"}, "geometry": {"type": "Point", "coordinates": [9.70117, 61.66499]}}, {"type": "Feature", "properties": {"navn": "Kvitfjell stasjon", "id": "NSR:StopPlace:62456", "viktighet": 2, "avganger": 12, "operatorer": ["SJN"], "kilde": "journey-planner"}, "geometry": {"type": "Point", "coordinates": [10.16643, 61.47266]}}, {"type": "Feature", "properties": {"navn": "Kvål stasjon", "id": "NSR:StopPlace:369", "viktighet": 2, "avganger": 32, "operatorer": ["SJN"], "kilde": "journey-planner"}, "geometry": {"type": "Point", "coordinates": [10.27998, 63.23336]}}, {"type": "Feature", "properties": {"navn": "Lademoen stasjon", "id": "NSR:StopPlace:271", "viktighet": 2, "avganger": 44, "operatorer": ["SJN"], "kilde": "journey-planner"}, "geometry": {"type": "Point", "coordinates": [10.4167, 63.43723]}}, {"type": "Feature", "properties": {"navn": "Langhus stasjon", "id": "NSR:StopPlace:58854", "viktighet": 2, "avganger": 153, "operatorer": ["VYG"], "kilde": "journey-planner"}, "geometry": {"type": "Point", "coordinates": [10.83688, 59.74964]}}, {"type": "Feature", "properties": {"navn": "Langlete stasjon", "id": "NSR:StopPlace:446", "viktighet": 2, "avganger": 6, "operatorer": ["SJN"], "kilde": "journey-planner"}, "geometry": {"type": "Point", "coordinates": [10.97906, 62.9607]}}, {"type": "Feature", "properties": {"navn": "Larvik stasjon", "id": "NSR:StopPlace:58930", "viktighet": 2, "avganger": 50, "operatorer": ["VYG"], "kilde": "journey-planner"}, "geometry": {"type": "Point", "coordinates": [10.03074, 59.05036]}}, {"type": "Feature", "properties": {"navn": "Lassemoen stasjon", "id": "NSR:StopPlace:58934", "viktighet": 2, "avganger": 4, "operatorer": ["SJN"], "kilde": "journey-planner"}, "geometry": {"type": "Point", "coordinates": [12.71493, 64.69617]}}, {"type": "Feature", "properties": {"navn": "Leangen stasjon", "id": "NSR:StopPlace:393", "viktighet": 2, "avganger": 44, "operatorer": ["SJN"], "kilde": "journey-planner"}, "geometry": {"type": "Point", "coordinates": [10.46162, 63.43755]}}, {"type": "Feature", "properties": {"navn": "Leirsund stasjon", "id": "NSR:StopPlace:58855", "viktighet": 2, "avganger": 76, "operatorer": ["VYG"], "kilde": "journey-planner"}, "geometry": {"type": "Point", "coordinates": [11.08687, 59.9998]}}, {"type": "Feature", "properties": {"navn": "Ler stasjon", "id": "NSR:StopPlace:64521", "viktighet": 2, "avganger": 21, "operatorer": ["SJN"], "kilde": "journey-planner"}, "geometry": {"type": "Point", "coordinates": [10.29855, 63.1987]}}, {"type": "Feature", "properties": {"navn": "Lerkendal stasjon", "id": "NSR:StopPlace:469", "viktighet": 2, "avganger": 2, "operatorer": ["SJN"], "kilde": "journey-planner"}, "geometry": {"type": "Point", "coordinates": [10.40924, 63.41387]}}, {"type": "Feature", "properties": {"navn": "Lesja stasjon", "id": "NSR:StopPlace:62347", "viktighet": 2, "avganger": 8, "operatorer": ["SJN"], "kilde": "journey-planner"}, "geometry": {"type": "Point", "coordinates": [8.85318, 62.11851]}}, {"type": "Feature", "properties": {"navn": "Lesjaverk stasjon", "id": "NSR:StopPlace:62348", "viktighet": 2, "avganger": 8, "operatorer": ["SJN"], "kilde": "journey-planner"}, "geometry": {"type": "Point", "coordinates": [8.53819, 62.19255]}}, {"type": "Feature", "properties": {"navn": "Levanger stasjon", "id": "NSR:StopPlace:58935", "viktighet": 2, "avganger": 44, "operatorer": ["SJN"], "kilde": "journey-planner"}, "geometry": {"type": "Point", "coordinates": [11.3003, 63.74487]}}, {"type": "Feature", "properties": {"navn": "Lier stasjon", "id": "NSR:StopPlace:58835", "viktighet": 2, "avganger": 77, "operatorer": ["VYG"], "kilde": "journey-planner"}, "geometry": {"type": "Point", "coordinates": [10.29014, 59.76324]}}, {"type": "Feature", "properties": {"navn": "Lilleby stasjon", "id": "NSR:StopPlace:62369", "viktighet": 2, "avganger": 44, "operatorer": ["SJN"], "kilde": "journey-planner"}, "geometry": {"type": "Point", "coordinates": [10.43263, 63.43988]}}, {"type": "Feature", "properties": {"navn": "Lillehammer stasjon", "id": "NSR:StopPlace:420", "viktighet": 2, "avganger": 32, "operatorer": ["SJN", "VYG"], "kilde": "journey-planner"}, "geometry": {"type": "Point", "coordinates": [10.46148, 61.11491]}}, {"type": "Feature", "properties": {"navn": "Lillestrøm stasjon", "id": "NSR:StopPlace:62339", "viktighet": 2, "avganger": 379, "operatorer": ["FLT", "SJN", "VYG"], "kilde": "journey-planner"}, "geometry": {"type": "Point", "coordinates": [11.04536, 59.95291]}}, {"type": "Feature", "properties": {"navn": "Lindeberg stasjon", "id": "NSR:StopPlace:62094", "viktighet": 2, "avganger": 76, "operatorer": ["VYG"], "kilde": "journey-planner"}, "geometry": {"type": "Point", "coordinates": [11.12809, 60.03957]}}, {"type": "Feature", "properties": {"navn": "Ljan stasjon", "id": "NSR:StopPlace:62309", "viktighet": 2, "avganger": 153, "operatorer": ["VYG"], "kilde": "journey-planner"}, "geometry": {"type": "Point", "coordinates": [10.78468, 59.85275]}}, {"type": "Feature", "properties": {"navn": "Ljosanbotn stasjon", "id": "NSR:StopPlace:439", "viktighet": 2, "avganger": 10, "operatorer": ["VYG"], "kilde": "journey-planner"}, "geometry": {"type": "Point", "coordinates": [6.90141, 60.70867]}}, {"type": "Feature", "properties": {"navn": "Lundamo stasjon", "id": "NSR:StopPlace:461", "viktighet": 2, "avganger": 16, "operatorer": ["SJN"], "kilde": "journey-planner"}, "geometry": {"type": "Point", "coordinates": [10.28017, 63.15192]}}, {"type": "Feature", "properties": {"navn": "Lunde stasjon", "id": "NSR:StopPlace:58879", "viktighet": 2, "avganger": 9, "operatorer": ["GOA"], "kilde": "journey-planner"}, "geometry": {"type": "Point", "coordinates": [9.10124, 59.29908]}}, {"type": "Feature", "properties": {"navn": "Lunden stasjon", "id": "NSR:StopPlace:61696", "viktighet": 2, "avganger": 18, "operatorer": ["VYG"], "kilde": "journey-planner"}, "geometry": {"type": "Point", "coordinates": [7.11391, 60.85067]}}, {"type": "Feature", "properties": {"navn": "Lunner stasjon", "id": "NSR:StopPlace:58824", "viktighet": 2, "avganger": 45, "operatorer": ["VYG"], "kilde": "journey-planner"}, "geometry": {"type": "Point", "coordinates": [10.58442, 60.30499]}}, {"type": "Feature", "properties": {"navn": "Lysaker stasjon", "id": "NSR:StopPlace:58856", "viktighet": 2, "avganger": 645, "operatorer": ["FLT", "GOA", "VYG"], "kilde": "journey-planner"}, "geometry": {"type": "Point", "coordinates": [10.63736, 59.9132]}}, {"type": "Feature", "properties": {"navn": "Lønsdal stasjon", "id": "NSR:StopPlace:58972", "viktighet": 2, "avganger": 4, "operatorer": ["SJN"], "kilde": "journey-planner"}, "geometry": {"type": "Point", "coordinates": [15.46302, 66.74262]}}, {"type": "Feature", "properties": {"navn": "Lørenskog stasjon", "id": "NSR:StopPlace:58857", "viktighet": 2, "avganger": 152, "operatorer": ["VYG"], "kilde": "journey-planner"}, "geometry": {"type": "Point", "coordinates": [10.9446, 59.9448]}}, {"type": "Feature", "properties": {"navn": "Løten stasjon", "id": "NSR:StopPlace:58810", "viktighet": 2, "avganger": 12, "operatorer": ["SJN"], "kilde": "journey-planner"}, "geometry": {"type": "Point", "coordinates": [11.34166, 60.81873]}}, {"type": "Feature", "properties": {"navn": "Majavatn stasjon", "id": "NSR:StopPlace:61456", "viktighet": 2, "avganger": 4, "operatorer": ["SJN"], "kilde": "journey-planner"}, "geometry": {"type": "Point", "coordinates": [13.36807, 65.16433]}}, {"type": "Feature", "properties": {"navn": "Marienborg stasjon", "id": "NSR:StopPlace:61169", "viktighet": 2, "avganger": 49, "operatorer": ["SJN"], "kilde": "journey-planner"}, "geometry": {"type": "Point", "coordinates": [10.38268, 63.41821]}}, {"type": "Feature", "properties": {"navn": "Mariero stasjon", "id": "NSR:StopPlace:206", "viktighet": 2, "avganger": 139, "operatorer": ["GOA"], "kilde": "journey-planner"}, "geometry": {"type": "Point", "coordinates": [5.75384, 58.93349]}}, {"type": "Feature", "properties": {"navn": "Marnardal stasjon", "id": "NSR:StopPlace:58917", "viktighet": 2, "avganger": 14, "operatorer": ["GOA"], "kilde": "journey-planner"}, "geometry": {"type": "Point", "coordinates": [7.51256, 58.21298]}}, {"type": "Feature", "properties": {"navn": "Melhus skysstasjon", "id": "NSR:StopPlace:60047", "viktighet": 2, "avganger": 39, "operatorer": ["SJN"], "kilde": "journey-planner"}, "geometry": {"type": "Point", "coordinates": [10.27693, 63.28444]}}, {"type": "Feature", "properties": {"navn": "Meråker stasjon", "id": "NSR:StopPlace:61457", "viktighet": 2, "avganger": 4, "operatorer": ["SJN"], "kilde": "journey-planner"}, "geometry": {"type": "Point", "coordinates": [11.76001, 63.4226]}}, {"type": "Feature", "properties": {"navn": "Mjølfjell stasjon", "id": "NSR:StopPlace:61458", "viktighet": 2, "avganger": 11, "operatorer": ["VYG"], "kilde": "journey-planner"}, "geometry": {"type": "Point", "coordinates": [6.84061, 60.694]}}, {"type": "Feature", "properties": {"navn": "Mjøndalen stasjon", "id": "NSR:StopPlace:58836", "viktighet": 2, "avganger": 43, "operatorer": ["VYG"], "kilde": "journey-planner"}, "geometry": {"type": "Point", "coordinates": [10.01147, 59.75068]}}, {"type": "Feature", "properties": {"navn": "Mo i Rana stasjon", "id": "NSR:StopPlace:59243", "viktighet": 2, "avganger": 7, "operatorer": ["SJN"], "kilde": "journey-planner"}, "geometry": {"type": "Point", "coordinates": [14.13347, 66.30959]}}, {"type": "Feature", "properties": {"navn": "Moelv stasjon", "id": "NSR:StopPlace:58811", "viktighet": 2, "avganger": 41, "operatorer": ["SJN", "VYG"], "kilde": "journey-planner"}, "geometry": {"type": "Point", "coordinates": [10.69879, 60.92997]}}, {"type": "Feature", "properties": {"navn": "Moi stasjon", "id": "NSR:StopPlace:59658", "viktighet": 2, "avganger": 14, "operatorer": ["GOA"], "kilde": "journey-planner"}, "geometry": {"type": "Point", "coordinates": [6.55107, 58.45806]}}, {"type": "Feature", "properties": {"navn": "Mosjøen stasjon", "id": "NSR:StopPlace:58971", "viktighet": 2, "avganger": 6, "operatorer": ["SJN"], "kilde": "journey-planner"}, "geometry": {"type": "Point", "coordinates": [13.2003, 65.84467]}}, {"type": "Feature", "properties": {"navn": "Moss stasjon", "id": "NSR:StopPlace:58796", "viktighet": 2, "avganger": 86, "operatorer": ["VYG"], "kilde": "journey-planner"}, "geometry": {"type": "Point", "coordinates": [10.65705, 59.43214]}}, {"type": "Feature", "properties": {"navn": "Movatn stasjon", "id": "NSR:StopPlace:61301", "viktighet": 2, "avganger": 38, "operatorer": ["VYG"], "kilde": "journey-planner"}, "geometry": {"type": "Point", "coordinates": [10.81281, 60.03778]}}, {"type": "Feature", "properties": {"navn": "Myrdal stasjon", "id": "NSR:StopPlace:222", "viktighet": 2, "avganger": 32, "operatorer": ["VYG"], "kilde": "journey-planner"}, "geometry": {"type": "Point", "coordinates": [7.12276, 60.73514]}}, {"type": "Feature", "properties": {"navn": "Myrvoll stasjon", "id": "NSR:StopPlace:59638", "viktighet": 2, "avganger": 153, "operatorer": ["VYG"], "kilde": "journey-planner"}, "geometry": {"type": "Point", "coordinates": [10.80049, 59.78649]}}, {"type": "Feature", "properties": {"navn": "Mysen stasjon", "id": "NSR:StopPlace:58797", "viktighet": 2, "avganger": 39, "operatorer": ["VYG"], "kilde": "journey-planner"}, "geometry": {"type": "Point", "coordinates": [11.32446, 59.55374]}}, {"type": "Feature", "properties": {"navn": "Mørkved stasjon", "id": "NSR:StopPlace:234", "viktighet": 2, "avganger": 19, "operatorer": ["SJN"], "kilde": "journey-planner"}, "geometry": {"type": "Point", "coordinates": [14.55689, 67.28387]}}, {"type": "Feature", "properties": {"navn": "Namsskogan stasjon", "id": "NSR:StopPlace:61462", "viktighet": 2, "avganger": 4, "operatorer": ["SJN"], "kilde": "journey-planner"}, "geometry": {"type": "Point", "coordinates": [13.15223, 64.92591]}}, {"type": "Feature", "properties": {"navn": "Nationaltheatret", "id": "NSR:StopPlace:58404", "viktighet": 2, "avganger": 680, "operatorer": ["FLT", "GOA", "VYG"], "kilde": "journey-planner"}, "geometry": {"type": "Point", "coordinates": [10.7322, 59.91499]}}, {"type": "Feature", "properties": {"navn": "Nelaug stasjon", "id": "NSR:StopPlace:58890", "viktighet": 2, "avganger": 19, "operatorer": ["GOA"], "kilde": "journey-planner"}, "geometry": {"type": "Point", "coordinates": [8.62997, 58.65783]}}, {"type": "Feature", "properties": {"navn": "Nerdrum stasjon", "id": "NSR:StopPlace:61315", "viktighet": 2, "avganger": 42, "operatorer": ["VYG"], "kilde": "journey-planner"}, "geometry": {"type": "Point", "coordinates": [11.14077, 59.92302]}}, {"type": "Feature", "properties": {"navn": "Nesbyen stasjon", "id": "NSR:StopPlace:58837", "viktighet": 2, "avganger": 13, "operatorer": ["VYG"], "kilde": "journey-planner"}, "geometry": {"type": "Point", "coordinates": [9.11258, 60.57682]}}, {"type": "Feature", "properties": {"navn": "Neslandsvatn stasjon", "id": "NSR:StopPlace:58880", "viktighet": 2, "avganger": 12, "operatorer": ["GOA"], "kilde": "journey-planner"}, "geometry": {"type": "Point", "coordinates": [9.1565, 58.97117]}}, {"type": "Feature", "properties": {"navn": "Nisterud stasjon", "id": "NSR:StopPlace:291", "viktighet": 2, "avganger": 10, "operatorer": ["VYG"], "kilde": "journey-planner"}, "geometry": {"type": "Point", "coordinates": [9.48487, 59.30047]}}, {"type": "Feature", "properties": {"navn": "Nittedal stasjon", "id": "NSR:StopPlace:58858", "viktighet": 2, "avganger": 67, "operatorer": ["VYG"], "kilde": "journey-planner"}, "geometry": {"type": "Point", "coordinates": [10.8647, 60.0583]}}, {"type": "Feature", "properties": {"navn": "Nodeland stasjon", "id": "NSR:StopPlace:58918", "viktighet": 2, "avganger": 14, "operatorer": ["GOA"], "kilde": "journey-planner"}, "geometry": {"type": "Point", "coordinates": [7.8349, 58.15703]}}, {"type": "Feature", "properties": {"navn": "Nordagutu stasjon", "id": "NSR:StopPlace:58882", "viktighet": 2, "avganger": 20, "operatorer": ["GOA", "VYG"], "kilde": "journey-planner"}, "geometry": {"type": "Point", "coordinates": [9.32266, 59.418]}}, {"type": "Feature", "properties": {"navn": "Nordby stasjon", "id": "NSR:StopPlace:58859", "viktighet": 2, "avganger": 76, "operatorer": ["VYG"], "kilde": "journey-planner"}, "geometry": {"type": "Point", "coordinates": [11.18153, 60.15528]}}, {"type": "Feature", "properties": {"navn": "Nordstrand stasjon", "id": "NSR:StopPlace:61463", "viktighet": 2, "avganger": 153, "operatorer": ["VYG"], "kilde": "journey-planner"}, "geometry": {"type": "Point", "coordinates": [10.78592, 59.86375]}}, {"type": "Feature", "properties": {"navn": "Notodden stasjon", "id": "NSR:StopPlace:61101", "viktighet": 2, "avganger": 5, "operatorer": ["VYG"], "kilde": "journey-planner"}, "geometry": {"type": "Point", "coordinates": [9.25708, 59.557]}}, {"type": "Feature", "properties": {"navn": "Nydalen stasjon", "id": "NSR:StopPlace:59649", "viktighet": 2, "avganger": 66, "operatorer": ["VYG"], "kilde": "journey-planner"}, "geometry": {"type": "Point", "coordinates": [10.77184, 59.95184]}}, {"type": "Feature", "properties": {"navn": "Nyland stasjon", "id": "NSR:StopPlace:59650", "viktighet": 2, "avganger": 152, "operatorer": ["VYG"], "kilde": "journey-planner"}, "geometry": {"type": "Point", "coordinates": [10.87058, 59.94398]}}, {"type": "Feature", "properties": {"navn": "Nærbø stasjon", "id": "NSR:StopPlace:61872", "viktighet": 2, "avganger": 64, "operatorer": ["GOA"], "kilde": "journey-planner"}, "geometry": {"type": "Point", "coordinates": [5.64015, 58.66576]}}, {"type": "Feature", "properties": {"navn": "Ogna stasjon", "id": "NSR:StopPlace:61334", "viktighet": 2, "avganger": 50, "operatorer": ["GOA"], "kilde": "journey-planner"}, "geometry": {"type": "Point", "coordinates": [5.80353, 58.51975]}}, {"type": "Feature", "properties": {"navn": "Oppdal stasjon", "id": "NSR:StopPlace:316", "viktighet": 2, "avganger": 13, "operatorer": ["SJN"], "kilde": "journey-planner"}, "geometry": {"type": "Point", "coordinates": [9.69402, 62.59311]}}, {"type": "Feature", "properties": {"navn": "Oppegård stasjon", "id": "NSR:StopPlace:58860", "viktighet": 2, "avganger": 153, "operatorer": ["VYG"], "kilde": "journey-planner"}, "geometry": {"type": "Point", "coordinates": [10.81274, 59.76543]}}, {"type": "Feature", "properties": {"navn": "Opphus stasjon", "id": "NSR:StopPlace:58822", "viktighet": 2, "avganger": 12, "operatorer": ["SJN"], "kilde": "journey-planner"}, "geometry": {"type": "Point", "coordinates": [11.26059, 61.33154]}}, {"type": "Feature", "properties": {"navn": "Os stasjon", "id": "NSR:StopPlace:58812", "viktighet": 2, "avganger": 12, "operatorer": ["SJN"], "kilde": "journey-planner"}, "geometry": {"type": "Point", "coordinates": [11.22708, 62.49726]}}, {"type": "Feature", "properties": {"navn": "Oslo S", "id": "NSR:StopPlace:59872", "viktighet": 1, "avganger": 851, "operatorer": ["FLT", "GOA", "SJN", "VYG"], "kilde": "journey-planner"}, "geometry": {"type": "Point", "coordinates": [10.75305, 59.91036]}}, {"type": "Feature", "properties": {"navn": "Oslo lufthavn", "id": "NSR:StopPlace:58211", "viktighet": 2, "avganger": 233, "operatorer": ["FLT", "SJN", "VYG"], "kilde": "journey-planner"}, "geometry": {"type": "Point", "coordinates": [11.09789, 60.19336]}}, {"type": "Feature", "properties": {"navn": "Oteråga stasjon", "id": "NSR:StopPlace:58415", "viktighet": 2, "avganger": 19, "operatorer": ["SJN"], "kilde": "journey-planner"}, "geometry": {"type": "Point", "coordinates": [14.86998, 67.29939]}}, {"type": "Feature", "properties": {"navn": "Otta stasjon", "id": "NSR:StopPlace:4", "viktighet": 2, "avganger": 14, "operatorer": ["SJN", "VYG"], "kilde": "journey-planner"}, "geometry": {"type": "Point", "coordinates": [9.53682, 61.77228]}}, {"type": "Feature", "properties": {"navn": "Paradis stasjon", "id": "NSR:StopPlace:8", "viktighet": 2, "avganger": 139, "operatorer": ["GOA"], "kilde": "journey-planner"}, "geometry": {"type": "Point", "coordinates": [5.7422, 58.9561]}}, {"type": "Feature", "properties": {"navn": "Porsgrunn stasjon", "id": "NSR:StopPlace:58966", "viktighet": 2, "avganger": 54, "operatorer": ["VYG"], "kilde": "journey-planner"}, "geometry": {"type": "Point", "coordinates": [9.6586, 59.13936]}}, {"type": "Feature", "properties": {"navn": "Rakkestad stasjon", "id": "NSR:StopPlace:58798", "viktighet": 2, "avganger": 19, "operatorer": ["VYG"], "kilde": "journey-planner"}, "geometry": {"type": "Point", "coordinates": [11.33944, 59.42714]}}, {"type": "Feature", "properties": {"navn": "Ranheim stasjon", "id": "NSR:StopPlace:33", "viktighet": 2, "avganger": 43, "operatorer": ["SJN"], "kilde": "journey-planner"}, "geometry": {"type": "Point", "coordinates": [10.5343, 63.42798]}}, {"type": "Feature", "properties": {"navn": "Raufoss stasjon", "id": "NSR:StopPlace:58825", "viktighet": 2, "avganger": 35, "operatorer": ["VYG"], "kilde": "journey-planner"}, "geometry": {"type": "Point", "coordinates": [10.61333, 60.72224]}}, {"type": "Feature", "properties": {"navn": "Reimegrend stasjon", "id": "NSR:StopPlace:62361", "viktighet": 2, "avganger": 10, "operatorer": ["VYG"], "kilde": "journey-planner"}, "geometry": {"type": "Point", "coordinates": [6.73114, 60.67823]}}, {"type": "Feature", "properties": {"navn": "Reinsvoll stasjon", "id": "NSR:StopPlace:58826", "viktighet": 2, "avganger": 35, "operatorer": ["VYG"], "kilde": "journey-planner"}, "geometry": {"type": "Point", "coordinates": [10.61685, 60.67869]}}, {"type": "Feature", "properties": {"navn": "Reinunga stasjon", "id": "NSR:StopPlace:45", "viktighet": 2, "avganger": 18, "operatorer": ["VYG"], "kilde": "journey-planner"}, "geometry": {"type": "Point", "coordinates": [7.1392, 60.74388]}}, {"type": "Feature", "properties": {"navn": "Reitan stasjon", "id": "NSR:StopPlace:61459", "viktighet": 2, "avganger": 6, "operatorer": ["SJN"], "kilde": "journey-planner"}, "geometry": {"type": "Point", "coordinates": [11.37934, 62.80739]}}, {"type": "Feature", "properties": {"navn": "Rena stasjon", "id": "NSR:StopPlace:23", "viktighet": 2, "avganger": 12, "operatorer": ["SJN"], "kilde": "journey-planner"}, "geometry": {"type": "Point", "coordinates": [11.36985, 61.13459]}}, {"type": "Feature", "properties": {"navn": "Ringebu stasjon", "id": "NSR:StopPlace:17", "viktighet": 2, "avganger": 14, "operatorer": ["SJN", "VYG"], "kilde": "journey-planner"}, "geometry": {"type": "Point", "coordinates": [10.13935, 61.52925]}}, {"type": "Feature", "properties": {"navn": "Rise stasjon", "id": "NSR:StopPlace:61465", "viktighet": 2, "avganger": 16, "operatorer": ["GOA"], "kilde": "journey-planner"}, "geometry": {"type": "Point", "coordinates": [8.62366, 58.46855]}}, {"type": "Feature", "properties": {"navn": "Roa stasjon", "id": "NSR:StopPlace:58828", "viktighet": 2, "avganger": 45, "operatorer": ["VYG"], "kilde": "journey-planner"}, "geometry": {"type": "Point", "coordinates": [10.62061, 60.28359]}}, {"type": "Feature", "properties": {"navn": "Rognan stasjon", "id": "NSR:StopPlace:58958", "viktighet": 2, "avganger": 11, "operatorer": ["SJN"], "kilde": "journey-planner"}, "geometry": {"type": "Point", "coordinates": [15.39838, 67.09356]}}, {"type": "Feature", "properties": {"navn": "Rognes stasjon", "id": "NSR:StopPlace:61342", "viktighet": 2, "avganger": 6, "operatorer": ["SJN"], "kilde": "journey-planner"}, "geometry": {"type": "Point", "coordinates": [10.45853, 63.00455]}}, {"type": "Feature", "properties": {"navn": "Ronglan stasjon", "id": "NSR:StopPlace:62377", "viktighet": 2, "avganger": 20, "operatorer": ["SJN"], "kilde": "journey-planner"}, "geometry": {"type": "Point", "coordinates": [11.1134, 63.66628]}}, {"type": "Feature", "properties": {"navn": "Rosenholm stasjon", "id": "NSR:StopPlace:59637", "viktighet": 2, "avganger": 153, "operatorer": ["VYG"], "kilde": "journey-planner"}, "geometry": {"type": "Point", "coordinates": [10.79783, 59.82307]}}, {"type": "Feature", "properties": {"navn": "Rotvoll stasjon", "id": "NSR:StopPlace:61665", "viktighet": 2, "avganger": 1, "operatorer": ["SJN"], "kilde": "journey-planner"}, "geometry": {"type": "Point", "coordinates": [10.47999, 63.43668]}}, {"type": "Feature", "properties": {"navn": "Rygge stasjon", "id": "NSR:StopPlace:58799", "viktighet": 2, "avganger": 44, "operatorer": ["VYG"], "kilde": "journey-planner"}, "geometry": {"type": "Point", "coordinates": [10.74801, 59.37795]}}, {"type": "Feature", "properties": {"navn": "Råde stasjon", "id": "NSR:StopPlace:58800", "viktighet": 2, "avganger": 44, "operatorer": ["VYG"], "kilde": "journey-planner"}, "geometry": {"type": "Point", "coordinates": [10.86651, 59.34733]}}, {"type": "Feature", "properties": {"navn": "Rånåsfoss stasjon", "id": "NSR:StopPlace:59642", "viktighet": 2, "avganger": 42, "operatorer": ["VYG"], "kilde": "journey-planner"}, "geometry": {"type": "Point", "coordinates": [11.32866, 60.02943]}}, {"type": "Feature", "properties": {"navn": "Røkland stasjon", "id": "NSR:StopPlace:77", "viktighet": 2, "avganger": 6, "operatorer": ["SJN"], "kilde": "journey-planner"}, "geometry": {"type": "Point", "coordinates": [15.3133, 66.9817]}}, {"type": "Feature", "properties": {"navn": "Røra stasjon", "id": "NSR:StopPlace:62380", "viktighet": 2, "avganger": 41, "operatorer": ["SJN"], "kilde": "journey-planner"}, "geometry": {"type": "Point", "coordinates": [11.40124, 63.8571]}}, {"type": "Feature", "properties": {"navn": "Røros stasjon", "id": "NSR:StopPlace:53", "viktighet": 2, "avganger": 9, "operatorer": ["SJN"], "kilde": "journey-planner"}, "geometry": {"type": "Point", "coordinates": [11.37909, 62.57475]}}, {"type": "Feature", "properties": {"navn": "Røstad stasjon", "id": "NSR:StopPlace:62378", "viktighet": 2, "avganger": 41, "operatorer": ["SJN"], "kilde": "journey-planner"}, "geometry": {"type": "Point", "coordinates": [11.31782, 63.7526]}}, {"type": "Feature", "properties": {"navn": "Røyken stasjon", "id": "NSR:StopPlace:58838", "viktighet": 2, "avganger": 78, "operatorer": ["VYG"], "kilde": "journey-planner"}, "geometry": {"type": "Point", "coordinates": [10.3899, 59.74659]}}, {"type": "Feature", "properties": {"navn": "Sagdalen stasjon", "id": "NSR:StopPlace:101", "viktighet": 2, "avganger": 152, "operatorer": ["VYG"], "kilde": "journey-planner"}, "geometry": {"type": "Point", "coordinates": [11.01568, 59.95626]}}, {"type": "Feature", "properties": {"navn": "Sande stasjon", "id": "NSR:StopPlace:58871", "viktighet": 2, "avganger": 46, "operatorer": ["VYG"], "kilde": "journey-planner"}, "geometry": {"type": "Point", "coordinates": [10.2055, 59.58501]}}, {"type": "Feature", "properties": {"navn": "Sandefjord stasjon", "id": "NSR:StopPlace:58872", "viktighet": 2, "avganger": 51, "operatorer": ["VYG"], "kilde": "journey-planner"}, "geometry": {"type": "Point", "coordinates": [10.22247, 59.13524]}}, {"type": "Feature", "properties": {"navn": "Sandnes sentrum stasjon", "id": "NSR:StopPlace:702", "viktighet": 2, "avganger": 146, "operatorer": ["GOA"], "kilde": "journey-planner"}, "geometry": {"type": "Point", "coordinates": [5.73658, 58.85231]}}, {"type": "Feature", "properties": {"navn": "Sandvika stasjon", "id": "NSR:StopPlace:610", "viktighet": 2, "avganger": 451, "operatorer": ["FLT", "GOA", "VYG"], "kilde": "journey-planner"}, "geometry": {"type": "Point", "coordinates": [10.52575, 59.8929]}}, {"type": "Feature", "properties": {"navn": "Sarpsborg stasjon", "id": "NSR:StopPlace:58801", "viktighet": 2, "avganger": 45, "operatorer": ["VYG"], "kilde": "journey-planner"}, "geometry": {"type": "Point", "coordinates": [11.11792, 59.28587]}}, {"type": "Feature", "properties": {"navn": "Seimsgrend stasjon", "id": "NSR:StopPlace:114", "viktighet": 2, "avganger": 6, "operatorer": ["VYG"], "kilde": "journey-planner"}, "geometry": {"type": "Point", "coordinates": [6.23622, 60.63244]}}, {"type": "Feature", "properties": {"navn": "Selsbakk stasjon", "id": "NSR:StopPlace:62370", "viktighet": 2, "avganger": 7, "operatorer": ["SJN"], "kilde": "journey-planner"}, "geometry": {"type": "Point", "coordinates": [10.37255, 63.38921]}}, {"type": "Feature", "properties": {"navn": "Singsås stasjon", "id": "NSR:StopPlace:61381", "viktighet": 2, "avganger": 6, "operatorer": ["SJN"], "kilde": "journey-planner"}, "geometry": {"type": "Point", "coordinates": [10.72926, 62.95627]}}, {"type": "Feature", "properties": {"navn": "Sira stasjon", "id": "NSR:StopPlace:58919", "viktighet": 2, "avganger": 14, "operatorer": ["GOA"], "kilde": "journey-planner"}, "geometry": {"type": "Point", "coordinates": [6.66054, 58.41762]}}, {"type": "Feature", "properties": {"navn": "Sirevåg stasjon", "id": "NSR:StopPlace:60569", "viktighet": 2, "avganger": 50, "operatorer": ["GOA"], "kilde": "journey-planner"}, "geometry": {"type": "Point", "coordinates": [5.80708, 58.50252]}}, {"type": "Feature", "properties": {"navn": "Skansen stasjon", "id": "NSR:StopPlace:144", "viktighet": 2, "avganger": 47, "operatorer": ["SJN"], "kilde": "journey-planner"}, "geometry": {"type": "Point", "coordinates": [10.37775, 63.43111]}}, {"type": "Feature", "properties": {"navn": "Skarnes stasjon", "id": "NSR:StopPlace:58813", "viktighet": 2, "avganger": 42, "operatorer": ["VYG"], "kilde": "journey-planner"}, "geometry": {"type": "Point", "coordinates": [11.68052, 60.25397]}}, {"type": "Feature", "properties": {"navn": "Skatval stasjon", "id": "NSR:StopPlace:58936", "viktighet": 2, "avganger": 41, "operatorer": ["SJN"], "kilde": "journey-planner"}, "geometry": {"type": "Point", "coordinates": [10.82645, 63.50869]}}, {"type": "Feature", "properties": {"navn": "Skeiane stasjon", "id": "NSR:StopPlace:63079", "viktighet": 2, "avganger": 108, "operatorer": ["GOA"], "kilde": "journey-planner"}, "geometry": {"type": "Point", "coordinates": [5.73435, 58.84706]}}, {"type": "Feature", "properties": {"navn": "Ski stasjon", "id": "NSR:StopPlace:60944", "viktighet": 2, "avganger": 274, "operatorer": ["VYG"], "kilde": "journey-planner"}, "geometry": {"type": "Point", "coordinates": [10.83367, 59.71829]}}, {"type": "Feature", "properties": {"navn": "Skien stasjon", "id": "NSR:StopPlace:58884", "viktighet": 2, "avganger": 34, "operatorer": ["VYG"], "kilde": "journey-planner"}, "geometry": {"type": "Point", "coordinates": [9.60326, 59.2188]}}, {"type": "Feature", "properties": {"navn": "Skiple stasjon", "id": "NSR:StopPlace:698", "viktighet": 2, "avganger": 10, "operatorer": ["VYG"], "kilde": "journey-planner"}, "geometry": {"type": "Point", "coordinates": [6.67981, 60.68113]}}, {"type": "Feature", "properties": {"navn": "Skogn stasjon", "id": "NSR:StopPlace:61387", "viktighet": 2, "avganger": 41, "operatorer": ["SJN"], "kilde": "journey-planner"}, "geometry": {"type": "Point", "coordinates": [11.19412, 63.7053]}}, {"type": "Feature", "properties": {"navn": "Skonseng stasjon", "id": "NSR:StopPlace:58961", "viktighet": 2, "avganger": 4, "operatorer": ["SJN"], "kilde": "journey-planner"}, "geometry": {"type": "Point", "coordinates": [14.34437, 66.36199]}}, {"type": "Feature", "properties": {"navn": "Skoppum stasjon", "id": "NSR:StopPlace:58873", "viktighet": 2, "avganger": 46, "operatorer": ["VYG"], "kilde": "journey-planner"}, "geometry": {"type": "Point", "coordinates": [10.41116, 59.3908]}}, {"type": "Feature", "properties": {"navn": "Skotbu stasjon", "id": "NSR:StopPlace:59789", "viktighet": 2, "avganger": 42, "operatorer": ["VYG"], "kilde": "journey-planner"}, "geometry": {"type": "Point", "coordinates": [10.94694, 59.66533]}}, {"type": "Feature", "properties": {"navn": "Skøyen stasjon", "id": "NSR:StopPlace:59651", "viktighet": 2, "avganger": 657, "operatorer": ["FLT", "GOA", "VYG"], "kilde": "journey-planner"}, "geometry": {"type": "Point", "coordinates": [10.67851, 59.92238]}}, {"type": "Feature", "properties": {"navn": "Slependen stasjon", "id": "NSR:StopPlace:62392", "viktighet": 2, "avganger": 152, "operatorer": ["VYG"], "kilde": "journey-planner"}, "geometry": {"type": "Point", "coordinates": [10.50251, 59.88561]}}, {"type": "Feature", "properties": {"navn": "Slitu stasjon", "id": "NSR:StopPlace:60017", "viktighet": 2, "avganger": 42, "operatorer": ["VYG"], "kilde": "journey-planner"}, "geometry": {"type": "Point", "coordinates": [11.26182, 59.56687]}}, {"type": "Feature", "properties": {"navn": "Snartemo stasjon", "id": "NSR:StopPlace:58920", "viktighet": 2, "avganger": 14, "operatorer": ["GOA"], "kilde": "journey-planner"}, "geometry": {"type": "Point", "coordinates": [7.21128, 58.3318]}}, {"type": "Feature", "properties": {"navn": "Snippen stasjon", "id": "NSR:StopPlace:666", "viktighet": 2, "avganger": 37, "operatorer": ["VYG"], "kilde": "journey-planner"}, "geometry": {"type": "Point", "coordinates": [10.81001, 60.02401]}}, {"type": "Feature", "properties": {"navn": "Snåsa stasjon", "id": "NSR:StopPlace:58946", "viktighet": 2, "avganger": 4, "operatorer": ["SJN"], "kilde": "journey-planner"}, "geometry": {"type": "Point", "coordinates": [12.38038, 64.24588]}}, {"type": "Feature", "properties": {"navn": "Solbråtan stasjon", "id": "NSR:StopPlace:58861", "viktighet": 2, "avganger": 153, "operatorer": ["VYG"], "kilde": "journey-planner"}, "geometry": {"type": "Point", "coordinates": [10.80456, 59.80086]}}, {"type": "Feature", "properties": {"navn": "Sonsveien stasjon", "id": "NSR:StopPlace:59639", "viktighet": 2, "avganger": 77, "operatorer": ["VYG"], "kilde": "journey-planner"}, "geometry": {"type": "Point", "coordinates": [10.72532, 59.51489]}}, {"type": "Feature", "properties": {"navn": "Sparbu stasjon", "id": "NSR:StopPlace:62371", "viktighet": 2, "avganger": 38, "operatorer": ["SJN"], "kilde": "journey-planner"}, "geometry": {"type": "Point", "coordinates": [11.42903, 63.91895]}}, {"type": "Feature", "properties": {"navn": "Spikkestad stasjon", "id": "NSR:StopPlace:60736", "viktighet": 2, "avganger": 39, "operatorer": ["VYG"], "kilde": "journey-planner"}, "geometry": {"type": "Point", "coordinates": [10.34309, 59.74503]}}, {"type": "Feature", "properties": {"navn": "Spydeberg stasjon", "id": "NSR:StopPlace:58802", "viktighet": 2, "avganger": 42, "operatorer": ["VYG"], "kilde": "journey-planner"}, "geometry": {"type": "Point", "coordinates": [11.08011, 59.62094]}}, {"type": "Feature", "properties": {"navn": "Stabekk stasjon", "id": "NSR:StopPlace:59654", "viktighet": 2, "avganger": 258, "operatorer": ["FLT", "VYG"], "kilde": "journey-planner"}, "geometry": {"type": "Point", "coordinates": [10.60761, 59.90842]}}, {"type": "Feature", "properties": {"navn": "Stai stasjon", "id": "NSR:StopPlace:58827", "viktighet": 2, "avganger": 12, "operatorer": ["SJN"], "kilde": "journey-planner"}, "geometry": {"type": "Point", "coordinates": [11.05867, 61.49442]}}, {"type": "Feature", "properties": {"navn": "Stange stasjon", "id": "NSR:StopPlace:708", "viktighet": 2, "avganger": 42, "operatorer": ["VYG"], "kilde": "journey-planner"}, "geometry": {"type": "Point", "coordinates": [11.19458, 60.71801]}}, {"type": "Feature", "properties": {"navn": "Stanghelle stasjon", "id": "NSR:StopPlace:62295", "viktighet": 2, "avganger": 34, "operatorer": ["VYG"], "kilde": "journey-planner"}, "geometry": {"type": "Point", "coordinates": [5.7333, 60.54931]}}, {"type": "Feature", "properties": {"navn": "Stavanger stasjon", "id": "NSR:StopPlace:61291", "viktighet": 1, "avganger": 76, "operatorer": ["GOA"], "kilde": "journey-planner"}, "geometry": {"type": "Point", "coordinates": [5.73262, 58.96657]}}, {"type": "Feature", "properties": {"navn": "Steinberg stasjon", "id": "NSR:StopPlace:58839", "viktighet": 2, "avganger": 30, "operatorer": ["VYG"], "kilde": "journey-planner"}, "geometry": {"type": "Point", "coordinates": [9.96119, 59.75957]}}, {"type": "Feature", "properties": {"navn": "Steinkjer stasjon", "id": "NSR:StopPlace:58947", "viktighet": 2, "avganger": 23, "operatorer": ["SJN"], "kilde": "journey-planner"}, "geometry": {"type": "Point", "coordinates": [11.49479, 64.01254]}}, {"type": "Feature", "properties": {"navn": "Steinvik stasjon", "id": "NSR:StopPlace:62344", "viktighet": 2, "avganger": 12, "operatorer": ["SJN"], "kilde": "journey-planner"}, "geometry": {"type": "Point", "coordinates": [11.32429, 61.25129]}}, {"type": "Feature", "properties": {"navn": "Stjørdal stasjon", "id": "NSR:StopPlace:58948", "viktighet": 2, "avganger": 46, "operatorer": ["SJN"], "kilde": "journey-planner"}, "geometry": {"type": "Point", "coordinates": [10.91365, 63.47002]}}, {"type": "Feature", "properties": {"navn": "Stoa stasjon", "id": "NSR:StopPlace:62352", "viktighet": 2, "avganger": 16, "operatorer": ["GOA"], "kilde": "journey-planner"}, "geometry": {"type": "Point", "coordinates": [8.70947, 58.46595]}}, {"type": "Feature", "properties": {"navn": "Stokke stasjon", "id": "NSR:StopPlace:58874", "viktighet": 2, "avganger": 50, "operatorer": ["VYG"], "kilde": "journey-planner"}, "geometry": {"type": "Point", "coordinates": [10.30019, 59.22122]}}, {"type": "Feature", "properties": {"navn": "Storekvina stasjon", "id": "NSR:StopPlace:59091", "viktighet": 2, "avganger": 14, "operatorer": ["GOA"], "kilde": "journey-planner"}, "geometry": {"type": "Point", "coordinates": [6.95781, 58.37976]}}, {"type": "Feature", "properties": {"navn": "Storlien station", "id": "NSR:StopPlace:59318", "viktighet": 2, "avganger": 2, "operatorer": ["SJN"], "kilde": "journey-planner"}, "geometry": {"type": "Point", "coordinates": [12.10008, 63.31623]}}, {"type": "Feature", "properties": {"navn": "Stryken stasjon", "id": "NSR:StopPlace:58829", "viktighet": 2, "avganger": 9, "operatorer": ["VYG"], "kilde": "journey-planner"}, "geometry": {"type": "Point", "coordinates": [10.72038, 60.16531]}}, {"type": "Feature", "properties": {"navn": "Strømmen stasjon", "id": "NSR:StopPlace:58862", "viktighet": 2, "avganger": 152, "operatorer": ["VYG"], "kilde": "journey-planner"}, "geometry": {"type": "Point", "coordinates": [11.00187, 59.94938]}}, {"type": "Feature", "properties": {"navn": "Støren stasjon", "id": "NSR:StopPlace:60077", "viktighet": 2, "avganger": 22, "operatorer": ["SJN"], "kilde": "journey-planner"}, "geometry": {"type": "Point", "coordinates": [10.28489, 63.05163]}}, {"type": "Feature", "properties": {"navn": "Svingen stasjon", "id": "NSR:StopPlace:58863", "viktighet": 2, "avganger": 4, "operatorer": ["VYG"], "kilde": "journey-planner"}, "geometry": {"type": "Point", "coordinates": [11.17737, 59.92888]}}, {"type": "Feature", "properties": {"navn": "Sørumsand stasjon", "id": "NSR:StopPlace:58864", "viktighet": 2, "avganger": 42, "operatorer": ["VYG"], "kilde": "journey-planner"}, "geometry": {"type": "Point", "coordinates": [11.24099, 59.986]}}, {"type": "Feature", "properties": {"navn": "Tangen stasjon", "id": "NSR:StopPlace:62341", "viktighet": 2, "avganger": 42, "operatorer": ["VYG"], "kilde": "journey-planner"}, "geometry": {"type": "Point", "coordinates": [11.2694, 60.61612]}}, {"type": "Feature", "properties": {"navn": "Tolga stasjon", "id": "NSR:StopPlace:58814", "viktighet": 2, "avganger": 12, "operatorer": ["SJN"], "kilde": "journey-planner"}, "geometry": {"type": "Point", "coordinates": [10.99801, 62.40849]}}, {"type": "Feature", "properties": {"navn": "Tomter stasjon", "id": "NSR:StopPlace:58803", "viktighet": 2, "avganger": 43, "operatorer": ["VYG"], "kilde": "journey-planner"}, "geometry": {"type": "Point", "coordinates": [11.00209, 59.65992]}}, {"type": "Feature", "properties": {"navn": "Torp stasjon", "id": "NSR:StopPlace:58875", "viktighet": 2, "avganger": 45, "operatorer": ["VYG"], "kilde": "journey-planner"}, "geometry": {"type": "Point", "coordinates": [10.26608, 59.16553]}}, {"type": "Feature", "properties": {"navn": "Trengereid stasjon", "id": "NSR:StopPlace:60042", "viktighet": 2, "avganger": 35, "operatorer": ["VYG"], "kilde": "journey-planner"}, "geometry": {"type": "Point", "coordinates": [5.62433, 60.42907]}}, {"type": "Feature", "properties": {"navn": "Trofors stasjon", "id": "NSR:StopPlace:58960", "viktighet": 2, "avganger": 4, "operatorer": ["SJN"], "kilde": "journey-planner"}, "geometry": {"type": "Point", "coordinates": [13.3835, 65.53787]}}, {"type": "Feature", "properties": {"navn": "Trollhättan Centralstation", "id": "NSR:StopPlace:61336", "viktighet": 2, "avganger": 17, "operatorer": ["VYG"], "kilde": "journey-planner"}, "geometry": {"type": "Point", "coordinates": [12.29897, 58.28728]}}, {"type": "Feature", "properties": {"navn": "Trondheim S", "id": "NSR:StopPlace:59977", "viktighet": 1, "avganger": 55, "operatorer": ["SJN"], "kilde": "journey-planner"}, "geometry": {"type": "Point", "coordinates": [10.39912, 63.43628]}}, {"type": "Feature", "properties": {"navn": "Trondheim lufthavn", "id": "NSR:StopPlace:59261", "viktighet": 2, "avganger": 46, "operatorer": ["SJN"], "kilde": "journey-planner"}, "geometry": {"type": "Point", "coordinates": [10.91727, 63.45425]}}, {"type": "Feature", "properties": {"navn": "Trykkerud stasjon", "id": "NSR:StopPlace:58885", "viktighet": 2, "avganger": 10, "operatorer": ["VYG"], "kilde": "journey-planner"}, "geometry": {"type": "Point", "coordinates": [9.33589, 59.5121]}}, {"type": "Feature", "properties": {"navn": "Tuen stasjon", "id": "NSR:StopPlace:61544", "viktighet": 2, "avganger": 4, "operatorer": ["VYG"], "kilde": "journey-planner"}, "geometry": {"type": "Point", "coordinates": [11.10301, 59.94291]}}, {"type": "Feature", "properties": {"navn": "Tverlandet stasjon", "id": "NSR:StopPlace:61134", "viktighet": 2, "avganger": 19, "operatorer": ["SJN"], "kilde": "journey-planner"}, "geometry": {"type": "Point", "coordinates": [14.74624, 67.30109]}}, {"type": "Feature", "properties": {"navn": "Tynset stasjon", "id": "NSR:StopPlace:699", "viktighet": 2, "avganger": 12, "operatorer": ["SJN"], "kilde": "journey-planner"}, "geometry": {"type": "Point", "coordinates": [10.77639, 62.27472]}}, {"type": "Feature", "properties": {"navn": "Tønsberg stasjon", "id": "NSR:StopPlace:58876", "viktighet": 2, "avganger": 52, "operatorer": ["VYG"], "kilde": "journey-planner"}, "geometry": {"type": "Point", "coordinates": [10.40945, 59.27169]}}, {"type": "Feature", "properties": {"navn": "Tøyen stasjon", "id": "NSR:StopPlace:59652", "viktighet": 2, "avganger": 42, "operatorer": ["VYG"], "kilde": "journey-planner"}, "geometry": {"type": "Point", "coordinates": [10.78067, 59.92045]}}, {"type": "Feature", "properties": {"navn": "Upsete stasjon", "id": "NSR:StopPlace:349", "viktighet": 2, "avganger": 10, "operatorer": ["VYG"], "kilde": "journey-planner"}, "geometry": {"type": "Point", "coordinates": [7.0115, 60.72538]}}, {"type": "Feature", "properties": {"navn": "Urdland stasjon", "id": "NSR:StopPlace:61383", "viktighet": 2, "avganger": 11, "operatorer": ["VYG"], "kilde": "journey-planner"}, "geometry": {"type": "Point", "coordinates": [6.59289, 60.67961]}}, {"type": "Feature", "properties": {"navn": "Ustaoset stasjon", "id": "NSR:StopPlace:358", "viktighet": 2, "avganger": 14, "operatorer": ["VYG"], "kilde": "journey-planner"}, "geometry": {"type": "Point", "coordinates": [8.04522, 60.49658]}}, {"type": "Feature", "properties": {"navn": "Vaksdal stasjon", "id": "NSR:StopPlace:364", "viktighet": 2, "avganger": 35, "operatorer": ["VYG"], "kilde": "journey-planner"}, "geometry": {"type": "Point", "coordinates": [5.73523, 60.4786]}}, {"type": "Feature", "properties": {"navn": "Vakås stasjon", "id": "NSR:StopPlace:61466", "viktighet": 2, "avganger": 152, "operatorer": ["VYG"], "kilde": "journey-planner"}, "geometry": {"type": "Point", "coordinates": [10.46694, 59.84987]}}, {"type": "Feature", "properties": {"navn": "Valnesfjord stasjon", "id": "NSR:StopPlace:372", "viktighet": 2, "avganger": 19, "operatorer": ["SJN"], "kilde": "journey-planner"}, "geometry": {"type": "Point", "coordinates": [15.19201, 67.29945]}}, {"type": "Feature", "properties": {"navn": "Varhaug stasjon", "id": "NSR:StopPlace:60271", "viktighet": 2, "avganger": 50, "operatorer": ["GOA"], "kilde": "journey-planner"}, "geometry": {"type": "Point", "coordinates": [5.64595, 58.61835]}}, {"type": "Feature", "properties": {"navn": "Varingskollen stasjon", "id": "NSR:StopPlace:62357", "viktighet": 2, "avganger": 43, "operatorer": ["VYG"], "kilde": "journey-planner"}, "geometry": {"type": "Point", "coordinates": [10.84644, 60.10617]}}, {"type": "Feature", "properties": {"navn": "Vatnahalsen stasjon", "id": "NSR:StopPlace:448", "viktighet": 2, "avganger": 20, "operatorer": ["VYG"], "kilde": "journey-planner"}, "geometry": {"type": "Point", "coordinates": [7.12984, 60.7438]}}, {"type": "Feature", "properties": {"navn": "Vegårshei stasjon", "id": "NSR:StopPlace:58891", "viktighet": 2, "avganger": 11, "operatorer": ["GOA"], "kilde": "journey-planner"}, "geometry": {"type": "Point", "coordinates": [8.85566, 58.7608]}}, {"type": "Feature", "properties": {"navn": "Vennesla stasjon", "id": "NSR:StopPlace:58921", "viktighet": 2, "avganger": 11, "operatorer": ["GOA"], "kilde": "journey-planner"}, "geometry": {"type": "Point", "coordinates": [7.96726, 58.25297]}}, {"type": "Feature", "properties": {"navn": "Verdal stasjon", "id": "NSR:StopPlace:58790", "viktighet": 2, "avganger": 44, "operatorer": ["SJN"], "kilde": "journey-planner"}, "geometry": {"type": "Point", "coordinates": [11.48456, 63.7912]}}, {"type": "Feature", "properties": {"navn": "Vestby stasjon", "id": "NSR:StopPlace:58865", "viktighet": 2, "avganger": 80, "operatorer": ["VYG"], "kilde": "journey-planner"}, "geometry": {"type": "Point", "coordinates": [10.74886, 59.6038]}}, {"type": "Feature", "properties": {"navn": "Vestfossen stasjon", "id": "NSR:StopPlace:58840", "viktighet": 2, "avganger": 43, "operatorer": ["VYG"], "kilde": "journey-planner"}, "geometry": {"type": "Point", "coordinates": [9.86762, 59.73449]}}, {"type": "Feature", "properties": {"navn": "Vevelstad stasjon", "id": "NSR:StopPlace:58866", "viktighet": 2, "avganger": 153, "operatorer": ["VYG"], "kilde": "journey-planner"}, "geometry": {"type": "Point", "coordinates": [10.83831, 59.75624]}}, {"type": "Feature", "properties": {"navn": "Vieren stasjon", "id": "NSR:StopPlace:445", "viktighet": 2, "avganger": 9, "operatorer": ["VYG"], "kilde": "journey-planner"}, "geometry": {"type": "Point", "coordinates": [6.97952, 60.70925]}}, {"type": "Feature", "properties": {"navn": "Vigrestad stasjon", "id": "NSR:StopPlace:62311", "viktighet": 2, "avganger": 50, "operatorer": ["GOA"], "kilde": "journey-planner"}, "geometry": {"type": "Point", "coordinates": [5.68749, 58.5705]}}, {"type": "Feature", "properties": {"navn": "Vikersund stasjon", "id": "NSR:StopPlace:429", "viktighet": 2, "avganger": 8, "operatorer": ["VYG"], "kilde": "journey-planner"}, "geometry": {"type": "Point", "coordinates": [9.99833, 59.96919]}}, {"type": "Feature", "properties": {"navn": "Vikhammer stasjon", "id": "NSR:StopPlace:416", "viktighet": 2, "avganger": 45, "operatorer": ["SJN"], "kilde": "journey-planner"}, "geometry": {"type": "Point", "coordinates": [10.62369, 63.43875]}}, {"type": "Feature", "properties": {"navn": "Vinstra stasjon", "id": "NSR:StopPlace:425", "viktighet": 2, "avganger": 14, "operatorer": ["SJN", "VYG"], "kilde": "journey-planner"}, "geometry": {"type": "Point", "coordinates": [9.74704, 61.59546]}}, {"type": "Feature", "properties": {"navn": "Voss stasjon", "id": "NSR:StopPlace:59958", "viktighet": 2, "avganger": 37, "operatorer": ["VYG"], "kilde": "journey-planner"}, "geometry": {"type": "Point", "coordinates": [6.41057, 60.62893]}}, {"type": "Feature", "properties": {"navn": "Ygre stasjon", "id": "NSR:StopPlace:462", "viktighet": 2, "avganger": 9, "operatorer": ["VYG"], "kilde": "journey-planner"}, "geometry": {"type": "Point", "coordinates": [6.50734, 60.64536]}}, {"type": "Feature", "properties": {"navn": "Ål stasjon", "id": "NSR:StopPlace:58841", "viktighet": 2, "avganger": 14, "operatorer": ["VYG"], "kilde": "journey-planner"}, "geometry": {"type": "Point", "coordinates": [8.56157, 60.62623]}}, {"type": "Feature", "properties": {"navn": "Ålen stasjon", "id": "NSR:StopPlace:62374", "viktighet": 2, "avganger": 6, "operatorer": ["SJN"], "kilde": "journey-planner"}, "geometry": {"type": "Point", "coordinates": [11.31521, 62.84636]}}, {"type": "Feature", "properties": {"navn": "Åndalsnes stasjon", "id": "NSR:StopPlace:59703", "viktighet": 2, "avganger": 4, "operatorer": ["SJN"], "kilde": "journey-planner"}, "geometry": {"type": "Point", "coordinates": [7.69024, 62.56742]}}, {"type": "Feature", "properties": {"navn": "Åneby stasjon", "id": "NSR:StopPlace:58867", "viktighet": 2, "avganger": 43, "operatorer": ["VYG"], "kilde": "journey-planner"}, "geometry": {"type": "Point", "coordinates": [10.86277, 60.08581]}}, {"type": "Feature", "properties": {"navn": "Årnes stasjon", "id": "NSR:StopPlace:58868", "viktighet": 2, "avganger": 42, "operatorer": ["VYG"], "kilde": "journey-planner"}, "geometry": {"type": "Point", "coordinates": [11.4651, 60.12363]}}, {"type": "Feature", "properties": {"navn": "Ås stasjon", "id": "NSR:StopPlace:58869", "viktighet": 2, "avganger": 80, "operatorer": ["VYG"], "kilde": "journey-planner"}, "geometry": {"type": "Point", "coordinates": [10.79422, 59.6634]}}, {"type": "Feature", "properties": {"navn": "Åsen stasjon", "id": "NSR:StopPlace:58950", "viktighet": 2, "avganger": 38, "operatorer": ["SJN"], "kilde": "journey-planner"}, "geometry": {"type": "Point", "coordinates": [11.05197, 63.6095]}}, {"type": "Feature", "properties": {"navn": "Øksnavadporten stasjon", "id": "NSR:StopPlace:61251", "viktighet": 2, "avganger": 77, "operatorer": ["GOA"], "kilde": "journey-planner"}, "geometry": {"type": "Point", "coordinates": [5.70251, 58.78658]}}, {"type": "Feature", "properties": {"navn": "Ørneberget stasjon", "id": "NSR:StopPlace:468", "viktighet": 2, "avganger": 10, "operatorer": ["VYG"], "kilde": "journey-planner"}, "geometry": {"type": "Point", "coordinates": [6.94081, 60.70377]}}, {"type": "Feature", "properties": {"navn": "Øyeflaten stasjon", "id": "NSR:StopPlace:474", "viktighet": 2, "avganger": 10, "operatorer": ["VYG"], "kilde": "journey-planner"}, "geometry": {"type": "Point", "coordinates": [6.62749, 60.68018]}}]}